#dP2019  8 22  0  0  0.00000000      96 __u+U ITR00 FIT  IAC
## 2067 345600.00000000   900.00000000 58717 0.0000000000000
+  109   C06C07C08C09C10C11C12C13C14C16C19C20C21C22C23C24C25
+        C26C27C28C29C30C32C33C34C35C36E01E02E03E04E05E07E08
+        E09E11E12E13E14E15E18E19E21E24E25E26E27E30E31E33E36
+        G01G02G03G04G05G06G07G08G09G10G11G12G13G14G15G16G17
+        G18G19G20G21G22G23G24G25G26G27G28G29G30G31G32J01J02
+        J03J07R01R02R03R04R05R07R08R09R11R12R13R14R15R16R17
+        R18R19R20R21R22R23R24  0  0  0  0  0  0  0  0  0  0
++         9  9  8  8  8  8  8  8  7  9  8  8  7  8  8  8  8
++         8  8  8  8  8  9  8  8 10 10  5  5  5  5  5  5  5
++         5  5  5  5  5  5  5  5  5  5  5  5  5  5  5  5  5
++         4  3  3  4  4  3  4  3  4  3  4  3  4  3  3  3  3
++         3  3  3  3  3  4  3  3  3  3  3  3  3  3  3 10  9
++         9 14  6  5  5  5  5  5  5  6  5  6  6  5  5  6  5
++         5  6  6  5  5  5  6  0  0  0  0  0  0  0  0  0  0
%c M  cc GPS ccc cccc cccc cccc cccc ccccc ccccc ccccc ccccc
%c cc cc ccc ccc cccc cccc cccc cccc ccccc ccccc ccccc ccccc
%f  0.0000000  0.000000000  0.00000000000  0.000000000000000
%f  0.0000000  0.000000000  0.00000000000  0.000000000000000
%i    0    0    0    0      0      0      0      0         0
%i    0    0    0    0      0      0      0      0         0
/*                                                          
/*   RSA / INFORMATION & ANALYSIS CENTER (IAC) OF MCC       
/*   ULTRA-RAPID DETERMINATION                              
/* PCV:IGS14_2062 OL/AL:FES2004  NONE     YN ORB:CoN CLK:CoN
*  2019 08 22 21  0  0.00000000
PC06  -7800.246920  36237.287714 -19358.537583    457.970236
PC07 -13203.023292  22968.914926  32914.406037    -82.386002
PC08 -25078.992073  31773.069032 -12284.043885    165.007024
PC09    219.432947  41288.584963  -7334.806935    -89.681638
PC10    759.539261  26764.611394  32794.878704   -106.004115
PC11 -14586.052015  17429.583453  16287.381885    198.520645
PC12 -11957.281805 -13059.580478  21604.327472   -233.231104
PC13 -13269.453470  32662.368688 -23274.156788   -930.763367
PC14 -21680.076516  -2591.147555 -17337.699311    508.518185
PC16  -6172.177841  37201.340866 -18665.068117   -876.583932
PC19   7437.257430 -14444.601186  22711.386572    179.108409
PC20  20976.355113   1060.498142  18407.415559      6.466573
PC21 -22358.509353 -16396.346006  -3030.046848    349.055883
PC22 -10583.491720 -21787.715950  13833.013087    -18.559406
PC23   1734.370462  16278.963837  22611.344262   -927.675182
PC24 -26932.867853   6658.741353  -3059.162753   -924.649677
PC25 -17281.086896  16804.733175  14072.601096   -323.496124
PC26 -20701.906121  -5873.143054 -17778.628488    361.468274
PC27  12173.907691  13445.198267 -21219.983915    176.392174
PC28    585.388931  26487.440518  -8787.114194    170.385778
PC29  10366.339126 -24408.054206  -8693.928770    108.033492
PC30  16331.481402  -7830.923533 -21235.870715    179.923567
PC32  22515.046612  16208.327873   3091.586542   -909.009377
PC33  -7395.435104  14482.463708 -22673.807219 999999.999999
PC34 -16378.855234   8038.261573  21104.551599    -18.505510
PC35  -1441.080931 -26489.534566   8702.298113 999999.999999
PC36  17822.696248 -16334.806771 -13920.683871   -733.715169
PE01  -4400.816168 -16405.975785 -24233.733866   -674.204675
PE02   4489.147979  16408.769954  24228.406354     75.199108
PE03   7138.804468  27657.849932  -7792.805742   -202.519836
PE04 -18248.410922 -20802.251341 -10497.007765   -349.977501
PE05  -8275.187444  18353.044654 -21696.188364   -455.234875
PE07  18770.246872   1634.896866  22841.868177   -251.482687
PE08  18405.993016  20594.667215  10669.870873   6303.461011
PE09 -18628.193813  -1479.371343 -22943.704846   6339.632680
PE11 -21036.414962   9150.292220  18688.911124   5616.713856
PE12 -12022.112854 -11355.401150  24546.971241   6235.248987
PE13  20930.118416  -9153.071988 -18823.716008    391.772179
PE14  18530.782990  14526.947961 -21463.438137   -691.514609
PE15  12264.787054  10909.890798 -24630.837141    898.317599
PE18 -10834.579029 -18378.680492  12194.391886   -786.145180
PE19  -5709.982696 -27395.534215   9653.131283     -4.427607
PE21  17609.758106 -12238.379035 -20405.014599   -550.888420
PE24 -29211.233782    827.242081   4732.618758   5910.256605
PE25 -17654.156708  12219.334478  20381.285212   1702.471168
PE26  17490.680870 -23802.395777  -1848.309304   4193.609537
PE27  29241.507769   -847.961899  -4535.905571    402.744776
PE30  23707.405202  11100.580308  13816.110671   4607.568797
PE31 -23680.876180 -10990.518558 -13924.963144   -467.647893
PE33   3606.111790 -24626.581266  16022.139568   -469.882768
PE36 -17345.562620  23906.635173   1957.800454    671.504379
PG01  -9559.524185  19732.598825 -14956.738147   -104.851459
PG02  21298.486341 -15242.623231  -3327.279928   -288.737848
PG03   1087.126283  16308.460430 -21004.861993     -3.814410
PG04 -14374.819947   4778.350852  21496.199681    127.396480
PG05  19276.034082  -5729.537869  17321.634573     -0.844622
PG06  20838.063052  -1937.418064 -16332.568111    -33.276330
PG07   5993.175169  14579.272956  21604.492742    -90.693756
PG08  -5824.680180  22381.496982  12902.414209     -3.728404
PG09   8236.523799  24306.258542   6781.971002    -12.859499
PG10 -24061.231874 -11400.987353   1690.178468    -24.291415
PG11  -7025.591125  25032.466004  -6646.639571   -528.043692
PG12   3417.246892 -14768.031394 -22037.591456    211.452948
PG13  12761.819879 -13945.154037  18521.988171    -48.355946
PG14 -15101.302172  -1783.099892 -21461.477940    -65.264417
PG15   3997.083428 -23048.464547  11928.460928   -292.343936
PG16 -20130.772860   2317.796317  17207.665276    -67.357359
PG17  13725.968918  11101.038048 -19459.958490    111.595915
PG18 -15713.912999  20142.628851  -7553.018055     79.893628
PG19  14775.953859   4070.784443 -21990.155519   -277.421372
PG20 -19699.438912 -14090.870847  10989.096089    526.543059
PG21 -10796.040542 -11598.406729  22107.741548   -131.851122
PG22  -7030.194320  14253.810203 -21052.739681   -746.847821
PG23    272.684141  25856.096973  -4732.324829   -170.888955
PG24  10879.133402 -20846.510023 -12174.097913     -1.173759
PG25 -11496.008912 -17428.155274 -16775.334134     -8.763975
PG26 -24963.448559  -3018.854835   8816.088414     21.312577
PG27 -12593.422794  10758.849417  20575.741406    -32.043894
PG28  22660.320793  13671.983733   2019.710550    764.110162
PG29  -4369.301459 -25817.557624   4349.898392    117.933547
PG30  16017.136312   6805.967131  20147.586607    -25.093452
PG31 -22126.645585   3079.632271 -14704.648540     15.503156
PG32 -14996.034781 -10681.476607 -19123.496015     29.106005
PJ01 -22296.154194  19069.672063 -25665.612987   -256.369035
PJ02 -31106.762517  24434.512964  19309.560221     -2.818816
PJ03 -27326.950354  26204.779526  23660.793538     -0.911884
PJ07 -25388.326042  33670.720360    -48.649705     -0.077895
PR01 -15795.683227  -4339.896289 -19545.057258     48.527214
PR02  -2239.354043  13532.422799 -21455.083291    384.503016
PR03  11030.817551  20988.038775  -9307.653102      0.392330
PR04  17960.139227  15870.234357   8725.243173    318.669567
PR05  14443.755075   2402.956844  20891.716225     34.307654
PR07 -11326.406466 -21086.085854   8907.624324    -25.495114
PR08 -17835.792144 -16429.038177  -7878.075463     16.002198
PR09  12217.432495 -11336.757414 -19319.945976     86.716391
PR11 -21003.914145  -3680.309244 -13935.939564    -76.914789
PR12 -24976.578906   4771.196415   2145.044510     55.007758
PR13 -14319.388275  10932.925027  18041.654867    -27.491502
PR14   4297.027071  10427.407345  22898.398543     42.188437
PR15  20451.051490   4052.590483  14728.029093    103.602940
PR16  24788.748400  -5280.895766  -2322.338225      5.671760
PR17  -2540.559860  22019.426859 -12660.416956    254.039296
PR18   7238.233297   9395.642968 -22567.786279      4.737577
PR19  13234.694406  -7744.790582 -20387.065741    -49.763559
PR20  11828.987569 -22094.513344  -4858.287329   -388.241148
PR21   2152.788329 -21638.629477  13302.211124    -67.686527
PR22  -8487.344421  -6730.417921  23100.284792    -34.305300
PR23 -13627.801808  13325.370106  16942.107868    248.979728
PR24 -10693.505088  22977.241475   2826.104811   -183.972145
EOF
